{
"type": "FeatureCollection",
"name": "netherlands_outer",
"crs": { "type": "name", "properties": { "name": "urn:ogc:def:crs:EPSG::28992" } },
"features": [
{ "type": "Feature", "properties": { "source": "https://simplemaps.com", "id": "NLGR", "name": "Groningen" }, "geometry": { "type": "MultiPolygon", "coordinates": [ [ [ [ 30939.024780265099253, 379504.640834805672057 ], [ 37678.663877197497641, 377401.694870238774456 ], [ 39865.920559283767943, 375368.229779125016648 ], [ 41336.679555669630645, 374701.147173454402946 ], [ 44148.218769926897949, 374639.037496398610529 ], [ 46784.874188430490904, 373821.483220697031356 ], [ 48473.795862041544751, 374030.330870732665062 ], [ 55334.238718152642832, 376820.743489862827118 ], [ 56290.500945474006585, 377902.347061083593871 ], [ 56707.330356107209809, 380112.953247123048641 ], [ 57388.79849921062123, 381086.870184118160978 ], [ 58887.637187515283586, 380985.811258058995008 ], [ 60500.790218714595539, 380330.66482900083065 ], [ 61491.286620115293772, 379678.417189955129288 ], [ 61937.186266125412658, 378972.944937403080985 ], [ 62687.233806715739775, 377225.102317801094614 ], [ 63292.507784321744111, 376534.974006187927444 ], [ 64063.997582299911301, 376253.973803869681433 ], [ 65742.97750990917848, 375997.792160810902715 ], [ 66430.050839389135945, 375415.289671034959611 ], [ 66874.63747213606257, 375226.440737516270019 ], [ 69280.031650520220865, 374986.082851876213681 ], [ 70505.852269938739482, 376763.015664847858716 ], [ 70954.609959083609283, 377167.585890447488055 ], [ 72311.814112699968973, 376991.362591379263904 ], [ 73824.728036353175412, 376071.9638976950082 ], [ 73780.389080490538618, 375607.148739733500406 ], [ 73220.520679065171862, 373025.755976058077067 ], [ 72813.783315885273623, 371925.440169811248779 ], [ 70006.986918823138694, 368219.653421016060747 ], [ 66499.958224968067952, 365556.724840778624639 ], [ 57770.242958430564613, 361357.099248312006239 ], [ 54538.105184496351285, 358921.171300978574436 ], [ 52961.073678804328665, 358449.304933893843554 ], [ 44689.998020873012138, 358517.886042649392039 ], [ 43831.716668073961046, 358918.936835624859668 ], [ 42819.045555969743873, 360177.531669942778535 ], [ 42729.09895043472352, 361341.180006103881169 ], [ 42871.766664953393047, 362574.466638717916794 ], [ 42543.122383547743084, 364039.548732320545241 ], [ 41242.351054073587875, 364936.800108186027501 ], [ 32777.938667546666693, 367971.056250734836794 ], [ 31004.51778424915392, 368304.391855991329066 ], [ 29279.316846816684119, 368246.056960568472277 ], [ 26488.45299099724798, 367691.727545632980764 ], [ 25369.384029882217874, 367653.959005643206183 ], [ 24339.140286248060875, 367424.351398541359231 ], [ 23554.622804711078061, 366656.589373716677073 ], [ 23391.643324447417399, 365375.330789979780093 ], [ 23535.619007811299525, 363962.496291731367819 ], [ 23306.442472924740287, 362915.881461117765866 ], [ 19987.946061197144445, 362485.059111060865689 ], [ 17765.127304231573362, 362806.115563562896568 ], [ 16169.720540303678717, 363596.563861836330034 ], [ 15677.567885152733652, 363840.561767605191562 ], [ 14033.613218951679301, 365746.507545905129518 ], [ 13123.446772979747038, 368567.220712438574992 ], [ 13246.137413818883942, 371157.933426028233953 ], [ 13611.042177004681434, 373908.706043956975918 ], [ 13127.828663717169547, 378208.689378938346636 ], [ 24463.504175693204161, 381546.503851599234622 ], [ 25515.513704445664189, 382370.949374446005095 ], [ 26605.438853834988549, 382470.034776304673869 ], [ 30939.024780265099253, 379504.640834805672057 ] ] ], [ [ [ 75605.037806685024407, 379207.093422501231544 ], [ 75656.922922314406605, 380351.747546823055018 ], [ 75534.580598827160429, 381218.43294817925198 ], [ 74834.908357249878463, 381731.992444948991761 ], [ 74002.911416642557015, 380685.755921667441726 ], [ 72466.797819143452216, 380248.705070223310031 ], [ 66213.496495596671593, 380535.373204810137395 ], [ 64778.292708423730801, 381040.629832452046685 ], [ 63389.858823247865075, 381925.791123783506919 ], [ 59626.196794519506511, 385323.156006449600682 ], [ 58498.137521516197012, 385810.889347408316098 ], [ 55602.542119946447201, 386165.701305193419103 ], [ 54623.527139827143401, 385582.774006998515688 ], [ 52480.076535257423529, 381717.999174135853536 ], [ 51669.855565258942079, 380584.317241908807773 ], [ 50588.050124222616432, 380035.930718343472108 ], [ 48079.565109148185002, 379816.47650299052475 ], [ 47172.753101879105088, 379265.12119615013944 ], [ 46422.394858667903463, 379149.796429459063802 ], [ 45682.138908961889683, 379505.308593384746928 ], [ 43823.41445686633233, 381556.210349678469356 ], [ 39675.988379207308753, 383722.801464563701302 ], [ 37020.802222460013581, 386396.787001140764914 ], [ 35932.187193145495257, 386544.526343248144258 ], [ 33027.76105577321141, 385535.823798360361252 ], [ 31459.183527677494567, 385501.375480550690554 ], [ 27544.878907191916369, 386495.003185544570442 ], [ 26312.294913981415448, 387205.45696204865817 ], [ 25295.237128961583949, 388807.411182548268698 ], [ 24413.957165926156449, 390605.368545314588118 ], [ 23611.138521250599297, 391916.864650527189951 ], [ 21381.914222529449034, 393986.090322614123579 ], [ 20656.964361605612794, 395200.927684994356241 ], [ 20428.420083556062309, 397014.063408415822778 ], [ 21183.311022890964523, 398008.493671906879172 ], [ 28425.931393650040263, 402223.740525388624519 ], [ 47068.626721528577036, 403805.578120878024492 ], [ 48602.63749283629295, 403555.638647253159434 ], [ 49627.206209822994424, 402936.402301701018587 ], [ 50721.876369924124447, 401876.713314895285293 ], [ 51686.185654985834844, 400489.385113198019098 ], [ 52296.136356990304193, 398855.883872743346728 ], [ 51562.376971888268599, 398576.543244458269328 ], [ 50366.674172270402778, 397799.692675002093893 ], [ 49895.13328358803119, 397383.829031347238924 ], [ 49880.820481950679095, 396695.863563198014162 ], [ 56504.386563267311431, 395865.089672424597666 ], [ 59848.539723256340949, 394433.602955172304064 ], [ 62665.590183977925335, 391882.007556127384305 ], [ 63549.33445136116643, 390127.273390601854771 ], [ 64848.578255421743961, 386264.415590121352579 ], [ 65853.327523592175567, 384852.085419644252397 ], [ 67508.101099621475441, 384338.790725010912865 ], [ 71137.208567403809866, 384780.017988094477914 ], [ 72489.042791901083547, 384051.519902288971934 ], [ 73871.052456517980318, 384477.440210036351345 ], [ 76132.207780492506572, 384328.571371336700395 ], [ 76901.920812591139111, 384530.899752592667937 ], [ 78256.795234838529723, 384870.946430748386774 ], [ 79233.810447801180999, 387396.179777591722086 ], [ 78704.637212172034197, 389808.214950782479718 ], [ 77285.508622297609691, 391627.246043895313051 ], [ 75360.051254452468129, 392793.615460470377002 ], [ 74718.049492575315526, 392921.473696832545102 ], [ 72240.33877146911982, 393409.645062849798705 ], [ 69393.128548691791366, 394733.855779286590405 ], [ 68327.616511770305806, 394842.563256665715016 ], [ 66126.816567561676493, 394618.163974106428213 ], [ 65091.013632610629429, 394808.539456373080611 ], [ 63437.90360355352459, 395834.337796680745669 ], [ 58050.18012770821224, 401083.101255578163546 ], [ 61759.086681210712413, 402765.510887084761634 ], [ 63606.076524455274921, 403247.879126420826651 ], [ 69800.93340018215531, 402831.557968700537458 ], [ 71601.221358492926811, 402249.090655925683677 ], [ 73203.477590595255606, 400845.879636705853045 ], [ 73208.071404683651053, 400841.855910582875367 ], [ 73235.826821841372293, 400814.248398618306965 ], [ 72948.487656994271674, 402915.217105650808662 ], [ 72083.006059862309485, 403771.508091114461422 ], [ 71818.350719187525101, 403789.455408664187416 ], [ 69087.04094997215725, 403952.954795458470471 ], [ 68353.684664115906344, 404250.762521347496659 ], [ 67668.784139179973863, 404737.981085235835053 ], [ 67128.183692286853329, 405412.966676686948631 ], [ 66795.83167033335485, 406387.717280298587866 ], [ 66668.936944600893185, 407235.244170245656278 ], [ 66604.177633227489423, 407667.918799901963212 ], [ 66609.603310610793415, 408940.122667404182721 ], [ 66834.476649623567937, 409882.503358407120686 ], [ 67752.129692037327914, 410849.04313848860329 ], [ 68953.82466773755732, 411330.956290811358485 ], [ 71309.204594099108363, 411481.397713672195096 ], [ 70590.434563016082393, 412254.06816813419573 ], [ 68867.685446004368714, 413532.917714191135019 ], [ 64085.15046456278651, 415093.1708331455593 ], [ 63116.498662778511061, 416568.759016483207233 ], [ 62745.867961328200181, 420270.347958476748317 ], [ 61626.025001035552123, 422600.31397255678894 ], [ 59987.251899817609228, 424152.485558682295959 ], [ 58059.91161597718019, 425534.192469080677256 ], [ 56738.897528318673722, 424581.835495029226877 ], [ 54976.954119284273474, 424073.281934863945935 ], [ 53197.685081331204856, 424113.599339224456344 ], [ 51842.724315563449636, 423760.896935135009699 ], [ 51580.788221034352318, 423313.483443281264044 ], [ 51090.494335772425984, 423233.034596273151692 ], [ 50434.115955930858036, 423269.309512944775634 ], [ 49858.934127739456017, 426374.148193408909719 ], [ 51889.857244993472705, 427690.428050197137054 ], [ 56240.559839341440238, 428925.033998579951003 ], [ 56845.06599820475094, 429714.623335028765723 ], [ 58192.715755435128813, 429792.551414093817584 ], [ 60487.178881067404291, 429223.492983216012362 ], [ 62385.653832771902671, 428146.602012766699772 ], [ 62670.604688647392322, 428082.470959755242802 ], [ 63182.06627226054843, 428131.947602295374963 ], [ 63905.801896522956667, 428440.209870507882442 ], [ 64759.994864081425476, 429144.71280766959535 ], [ 64256.956355625443393, 430172.574664976506028 ], [ 62546.926392625449807, 432626.330760946904775 ], [ 62088.893175945297116, 433015.177599061222281 ], [ 61699.597059379389975, 433479.745691011776216 ], [ 61555.658040978654753, 434175.215424824564252 ], [ 61723.110782362869941, 435041.479261962347664 ], [ 62053.712659226250253, 435646.611103113158606 ], [ 62381.051802956702886, 436079.759052306064405 ], [ 62538.770271757326555, 436430.027506171958521 ], [ 62346.514355253719259, 438145.198148558556568 ], [ 61118.862223215444828, 442537.707210163760465 ], [ 60388.141176511024241, 444421.611410781508312 ], [ 60789.770803941923077, 445256.24172075802926 ], [ 61273.22739429496869, 445989.754927859292366 ], [ 64456.916406431526411, 445215.519038777973037 ], [ 67119.6271653676813, 445607.123810914170463 ], [ 69493.147942508017877, 447091.796491398941725 ], [ 79480.252960285724839, 458874.898723326798063 ], [ 88018.603975498248474, 471049.880756220954936 ], [ 95087.987154142902, 483523.830831644125283 ], [ 99345.764677229584777, 495590.342765272944234 ], [ 99973.003066834557103, 498734.654153979732655 ], [ 99982.168778884690255, 499554.103214381146245 ], [ 101345.609531052934472, 502391.578508572943974 ], [ 104447.405740072936169, 523956.886845371511299 ], [ 105702.228212406276725, 529454.688580191228539 ], [ 105905.949699943332234, 531132.572848603129387 ], [ 106588.670876838557888, 534607.856553786201403 ], [ 109506.575209216302028, 541983.216227162629366 ], [ 110192.439637163479347, 545631.102053644135594 ], [ 110282.641694538877346, 547695.136036492069252 ], [ 110575.112714403949212, 550341.457380978623405 ], [ 111099.184382479492342, 552628.003868745057844 ], [ 111884.320070762682008, 553590.006664462271146 ], [ 116012.488380639653769, 552912.052400683867745 ], [ 116684.67887996826903, 553549.700166533933952 ], [ 117181.2183175158425, 552717.139995512203313 ], [ 116147.828289036304341, 549324.616051036980934 ], [ 117702.728659263477311, 547279.293383476673625 ], [ 120456.034761620830977, 546439.339041375904344 ], [ 123101.846848837129073, 546602.368828031350859 ], [ 124634.866689973161556, 547461.930100127356127 ], [ 127506.476657439678092, 549926.238031594199128 ], [ 128904.474082266126061, 550434.727510367520154 ], [ 131586.911296252423199, 550774.213688938179985 ], [ 134228.692713480617385, 551930.459064801339991 ], [ 141076.826804138894659, 558025.19073774095159 ], [ 147777.577894358430058, 564013.138124083867297 ], [ 148766.534472527186153, 565180.008043461362831 ], [ 150011.176107033184962, 566224.604275518096983 ], [ 153103.335927926906152, 566946.920007913722657 ], [ 154466.489682326704497, 567838.639165319036692 ], [ 155839.713019812450511, 570587.327027502818964 ], [ 157666.057626693887869, 578186.487742169527337 ], [ 159023.091189192549791, 581588.259312504669651 ], [ 161367.6706812242046, 584335.016464801039547 ], [ 162810.661862032429781, 585614.160436151432805 ], [ 165263.264981400658144, 586682.980539887794293 ], [ 166384.243635300896131, 587958.000251254881732 ], [ 167422.587538761843462, 589477.635404243832454 ], [ 168623.80934249603888, 590721.737582847476006 ], [ 169973.229258978302823, 591205.761356503353454 ], [ 173160.989172769332072, 591755.696805355139077 ], [ 175479.366775941336527, 593780.2683036159724 ], [ 186121.667765554622747, 598148.874926295713522 ], [ 188509.353534618625417, 599885.950487599242479 ], [ 190035.467978411616059, 600023.663452032022178 ], [ 194478.348034900496714, 602358.930979062221013 ], [ 200894.229813671990996, 602733.194177323952317 ], [ 208120.23376451790682, 603038.922486841096543 ], [ 213964.023288325086469, 603293.153901663026772 ], [ 214659.603726452100091, 603066.2724674831843 ], [ 215841.855066471791361, 602030.397094037965871 ], [ 216483.580541376315523, 601803.071299331379123 ], [ 217049.476080166874453, 602000.618976166471839 ], [ 218725.925864126300439, 603354.23236393253319 ], [ 228578.342813986353576, 606394.477599693811499 ], [ 244204.359806788415881, 609102.155856439028867 ], [ 250793.629859594861045, 608110.891910582315177 ], [ 252179.650981255050283, 607504.705187019892037 ], [ 253339.377520261972677, 606346.09169299993664 ], [ 255771.395425254129805, 597214.535021274583414 ], [ 256121.229386510734912, 597076.92767565511167 ], [ 257760.803496397245908, 595952.152179223834537 ], [ 257891.388529932009988, 595678.6330046254443 ], [ 258216.441001695784507, 595441.000439496245235 ], [ 258558.333553919161204, 594927.443898196914233 ], [ 259030.316249962837901, 594421.236206011031754 ], [ 261149.409836431965232, 593765.553445115336217 ], [ 263840.746769313467667, 592308.308398047694936 ], [ 265014.243221619457472, 592724.656475335708819 ], [ 265593.109504849766381, 592094.703106820699759 ], [ 266400.836547448765486, 591900.457600739900954 ], [ 267182.195695163449273, 592140.651139170047827 ], [ 267736.839266497234348, 592787.869592994335108 ], [ 268192.410645357216708, 592798.598013937124051 ], [ 268210.359101580223069, 592037.960494299652055 ], [ 267689.620366433111485, 591563.618700960767455 ], [ 267431.651872319576796, 591222.330931899603456 ], [ 267459.173245514160953, 590742.802307605743408 ], [ 267806.636387998063583, 589817.732400803826749 ], [ 267990.020421689550858, 588023.58449079899583 ], [ 270042.840348779398482, 586908.067433068645187 ], [ 274895.934376700490247, 585776.399169709999114 ], [ 275645.701117934891954, 585786.07417733152397 ], [ 275917.466786044125911, 582631.171564889489673 ], [ 276031.393913899897598, 580847.620361187611707 ], [ 275867.764239978860132, 579108.878199011087418 ], [ 275459.748396750364918, 577182.7682228195481 ], [ 274573.801957581541501, 574709.829326629289426 ], [ 274430.088463199324906, 573808.753669668571092 ], [ 274511.476900091511197, 572478.931132305995561 ], [ 274784.966934960859362, 571778.064037433941849 ], [ 275124.572025932953693, 571205.423805488739163 ], [ 275397.89218181965407, 570239.973672081599943 ], [ 276220.421115075063426, 562289.599253141554072 ], [ 276216.284920665842947, 558299.750766247860156 ], [ 275687.211120876483619, 554736.973106805933639 ], [ 274320.939694353088271, 550975.297403816250153 ], [ 269008.38897753803758, 542141.050372078083456 ], [ 268523.448645957512781, 540670.675913717364892 ], [ 267882.718512039631605, 538729.493896858301014 ], [ 267383.454064279096201, 534996.168067996390164 ], [ 267031.508106560679153, 522971.683569332992192 ], [ 266624.842915349290706, 519039.443392152257729 ], [ 265447.696810147201177, 516631.407852372503839 ], [ 263017.08073785045417, 517333.553572728240397 ], [ 261986.258739756012801, 517742.28971379424911 ], [ 258660.036141081422102, 517173.167224381468259 ], [ 255048.832331489335047, 518185.107317443122156 ], [ 248629.745313896855805, 517954.5172744532465 ], [ 246376.560792143223807, 517207.409145334502682 ], [ 245177.65051352372393, 516301.881118321034592 ], [ 244022.471447882533539, 515429.99037955555832 ], [ 244610.64226058172062, 514276.066149101301562 ], [ 244495.862702298036311, 513276.125401956669521 ], [ 244204.593906601076014, 512347.717501379433088 ], [ 244242.455018626642413, 511422.464413735899143 ], [ 244731.836745957261883, 510715.363514278607909 ], [ 246987.774566655221861, 508873.606389321328606 ], [ 243258.844289426837349, 506898.567184332641773 ], [ 242138.934650010720361, 506777.920392277068458 ], [ 243004.489066876034485, 505047.875813953578472 ], [ 243278.634756752115209, 503065.768431842559949 ], [ 243412.125626099441433, 501107.035779508179985 ], [ 243856.21106088894885, 499455.847787504375447 ], [ 245225.944563777447911, 497916.482909799029585 ], [ 247033.31410324893659, 497072.893723827903159 ], [ 252429.237559382570907, 496414.739757067407481 ], [ 255969.627923663007095, 495140.261886251566466 ], [ 257894.673536595830228, 494866.666365864337422 ], [ 259677.24740321180434, 495022.143283378623892 ], [ 261367.135906290553976, 495558.751484810374677 ], [ 261986.563620231347159, 496170.341807594231796 ], [ 262391.818025398242753, 496926.88730395573657 ], [ 262815.933542594895698, 497137.465750631992705 ], [ 267106.778577748453245, 490489.411486417229753 ], [ 268129.024583546211943, 487651.26956854906166 ], [ 267644.407130006526131, 483582.361364470736589 ], [ 266349.478940273635089, 480372.361645345634315 ], [ 265893.720824890187941, 478682.648630331037566 ], [ 265897.09754154109396, 476643.805371561262291 ], [ 266557.307749997940846, 474280.383171795401722 ], [ 266974.233883069828153, 473550.88592810271075 ], [ 267152.843772285734303, 473238.444040312606376 ], [ 266975.187795696605463, 472662.134978893445805 ], [ 263980.240132386388723, 470743.381749160587788 ], [ 263264.528754665807355, 469867.855819058022462 ], [ 261717.251607201818842, 467223.19619914930081 ], [ 260379.016233786998782, 465981.072346837841906 ], [ 257471.914448171970434, 464631.923407887341455 ], [ 256170.973140329006128, 463210.595240015187301 ], [ 254719.420929410116514, 460087.174608718487434 ], [ 253871.696736877318472, 459279.464544300630223 ], [ 249832.823560198536143, 458744.476108033850323 ], [ 249442.895426349743502, 458693.013424294127617 ], [ 248357.139890280697728, 458057.161575188569259 ], [ 247218.412371050741058, 456825.372703694971278 ], [ 246868.908972586563323, 456186.3166850337293 ], [ 246335.370050792931579, 454758.929509275883902 ], [ 245795.486055660119746, 454050.345964563137386 ], [ 244980.995832071523182, 453621.511035003291909 ], [ 244259.092141922417795, 453556.742357251234353 ], [ 243647.773567026481032, 453252.533361079287715 ], [ 243193.457265847391682, 452085.718384350650012 ], [ 243365.317971908836626, 450392.327198723854963 ], [ 244471.240847504872363, 449638.621119398856536 ], [ 245982.928252859448548, 449220.319747229921632 ], [ 250513.709555716253817, 446792.008769131498411 ], [ 252324.467159493360668, 444946.503742842643987 ], [ 252689.940564615564654, 444415.944166696048342 ], [ 252875.04858936695382, 443669.094291447545402 ], [ 252837.788481212221086, 442308.306025109312031 ], [ 252496.37755700526759, 441962.321986174501944 ], [ 251972.524871248198906, 441860.113492724660318 ], [ 251423.291563527658582, 441231.258738767239265 ], [ 249907.405268799571786, 438349.870182615239173 ], [ 248343.712823936424684, 436408.336589241982438 ], [ 246499.061086402158253, 435365.017539566208143 ], [ 240410.441542799817398, 435061.805815982574131 ], [ 233597.458390466228593, 432603.992533908342011 ], [ 230249.177478085359326, 429947.724918231775519 ], [ 229117.609129304240923, 429413.339709471270908 ], [ 227714.789472000964452, 429392.776605050545186 ], [ 223281.962569868657738, 430638.492333619680721 ], [ 223878.875303150271066, 428136.806170822761487 ], [ 223609.158305546501651, 427023.357113335980102 ], [ 221032.54893375915708, 426267.135336476960219 ], [ 220803.150490330299363, 427997.706097176880576 ], [ 219676.435493750526803, 428635.652800839103293 ], [ 217029.202119213383412, 429004.659397926880047 ], [ 216711.149491608550306, 429383.106237083440647 ], [ 215932.563733085902641, 430742.031267648679204 ], [ 215435.596189440053422, 431213.236002008547075 ], [ 214865.30974196139141, 431275.378304606711026 ], [ 212721.086760408245027, 430775.842421717126854 ], [ 210382.620206330728251, 431706.756293828133494 ], [ 208149.976886241871398, 433479.343589007447008 ], [ 205919.410014803608647, 434505.464587513706647 ], [ 203591.393464318127371, 433211.621160123846494 ], [ 204451.657313441100996, 432570.344585251354147 ], [ 207048.71878622751683, 429894.336251122469548 ], [ 207989.778254833014216, 428443.77870850689942 ], [ 206875.861829231173033, 428708.09712511964608 ], [ 205247.911804691451835, 429108.346271673042793 ], [ 203006.117880900157616, 429684.323987801675685 ], [ 200207.50788513358566, 428902.208191675890703 ], [ 199222.291288685286418, 428364.45346621167846 ], [ 197806.904634563426953, 427291.370488544809632 ], [ 196479.471941088355379, 426711.005351223808248 ], [ 193669.117909927619621, 426188.324902999331243 ], [ 192528.032248813164188, 425366.099441873899195 ], [ 192300.235835495346691, 424372.60434799984796 ], [ 193877.7059920411848, 423180.073829105007462 ], [ 194814.504649751528632, 421034.259785306348931 ], [ 194711.027562948816922, 418785.402052029327024 ], [ 193594.389358225977048, 417657.118903558352031 ], [ 193188.425666497147176, 417247.111472301417962 ], [ 193140.397980773414019, 416050.861325659323484 ], [ 193827.964902946347138, 415777.290804537304211 ], [ 195833.95828500285279, 415839.178069674875587 ], [ 196629.643532320915256, 415466.244877392775379 ], [ 198182.051490025478415, 414309.329928521823604 ], [ 198873.872631069622003, 413608.123394701979123 ], [ 197972.159507011761889, 410449.637134267948568 ], [ 199576.860566762508824, 408439.781831535743549 ], [ 204280.615448316559196, 406422.421305978903547 ], [ 203496.226146645494737, 403925.283405265654437 ], [ 203139.237089055968681, 402332.129586366703734 ], [ 203453.038229456607951, 400969.636118620284833 ], [ 208131.615580557205249, 394663.500663454819005 ], [ 210963.777718358149286, 391457.07706374512054 ], [ 211499.512630363577046, 387817.824381174345035 ], [ 211859.618421223392943, 385803.757148573815357 ], [ 211632.828864325012546, 383599.149663518590387 ], [ 211127.261236119578825, 381227.601279651804361 ], [ 211056.445695702219382, 379177.123231629258953 ], [ 212120.628831066365819, 377932.716438932227902 ], [ 211728.692764976498438, 376950.910973283811472 ], [ 211539.965929082187358, 374511.011524498520885 ], [ 211180.949739494302776, 373121.395013032481074 ], [ 210500.386274504067842, 372133.640498495427892 ], [ 208741.736127787036821, 370878.606550247757696 ], [ 208021.608968392887618, 370155.234982676047366 ], [ 204512.168626527418382, 363516.705959973856807 ], [ 203057.399793175805826, 361706.108181203948334 ], [ 202354.33583170195925, 360472.048757993383333 ], [ 201775.518480492726667, 358250.341489857877605 ], [ 201595.983634638279909, 355764.993444873369299 ], [ 202113.484408841613913, 353714.36302012775559 ], [ 203762.992025014886167, 352815.700090497848578 ], [ 207223.063243901822716, 355244.522719755652361 ], [ 208833.047387606755365, 354709.30636017821962 ], [ 208279.977010155329481, 354378.661166287143715 ], [ 206695.999045958073111, 353054.395189167524222 ], [ 208177.769047762645641, 351698.37394332443364 ], [ 207150.610510852013249, 350305.061649050563574 ], [ 203185.628806648339378, 348101.521413635346107 ], [ 196750.76353038023808, 342962.616455470910296 ], [ 195817.791304054087959, 341868.493187053594738 ], [ 194492.062661281583132, 339026.619912278256379 ], [ 193636.595264406962087, 338071.480128181749023 ], [ 192347.061343775741989, 337923.940762463142164 ], [ 191405.674085659091361, 338773.803891895106062 ], [ 190564.494015356031014, 339851.609973557817284 ], [ 189589.617049707507249, 340391.112735357834026 ], [ 187632.288308741903165, 339343.428233986604027 ], [ 188047.732103704562178, 336741.727556619094685 ], [ 189149.577442208479624, 333549.544389269780368 ], [ 189240.845812544983346, 330744.560205250396393 ], [ 190197.899341281037778, 330946.506885177339427 ], [ 192013.72092882861034, 331861.889527666440699 ], [ 192962.649972120532766, 332139.031237371673342 ], [ 193936.303738065762445, 332014.084821382944938 ], [ 195784.870068682939745, 331419.01461410347838 ], [ 198301.387053239101078, 331744.332099510880653 ], [ 198451.482291743566748, 331164.921112228999846 ], [ 198030.991263996635098, 330224.256871455640066 ], [ 197770.02565127928392, 329296.445109939086251 ], [ 197885.082584197778488, 327693.364520335919224 ], [ 198074.120889761368744, 326809.554909450351261 ], [ 198616.837198633991648, 326221.957538777263835 ], [ 200282.865608416788746, 325195.741476710070856 ], [ 202587.077180365333334, 324417.379382579121739 ], [ 202453.090784222993534, 323967.698328459577169 ], [ 202087.8342618883471, 323360.664400037552696 ], [ 201963.66896073683165, 322623.622262897843029 ], [ 202581.115593971975613, 320341.064685007033404 ], [ 202567.463737232465064, 319455.538977144053206 ], [ 202148.614074483833974, 318307.581619124044664 ], [ 201371.052966634946642, 317357.633579258457758 ], [ 199782.920872594957473, 317481.581393333268352 ], [ 198819.461274730681907, 316921.365555621101521 ], [ 198209.997217525611632, 315800.865924657206051 ], [ 198283.589067872933811, 314841.35704339412041 ], [ 198445.149936661560787, 313819.337986407568678 ], [ 198084.679440526582766, 312493.985388587112539 ], [ 197079.607489274174441, 311537.070021460414864 ], [ 196006.167873100697761, 311798.645524801977444 ], [ 196316.356283087370684, 310375.306745433772448 ], [ 196863.315888098470168, 309448.325041689502541 ], [ 197567.244998546055285, 308965.395628345664591 ], [ 198032.249139756488148, 308290.833628890337422 ], [ 197891.133861795155099, 306840.843586998758838 ], [ 196470.859167578630149, 306564.782630490139127 ], [ 191348.780719342874363, 306692.951430223241914 ], [ 190576.72611137284548, 306932.134129887330346 ], [ 189769.797933189955074, 307182.265212718222756 ], [ 183651.123473126848694, 306989.498563036497217 ], [ 182926.274801408464555, 307491.445869518211111 ], [ 181474.024233602016466, 309076.305373988812789 ], [ 180765.436389033013256, 309342.930713981739245 ], [ 180140.782172412640648, 308856.929177143028937 ], [ 179385.71712896056124, 307713.297360346768983 ], [ 179040.213959652290214, 307190.205795208807103 ], [ 178304.215348054538481, 307037.351054207072593 ], [ 177537.668028712389059, 307189.178656867123209 ], [ 176250.934150020155357, 307919.608039009617642 ], [ 176969.347415026131785, 310475.205875756801106 ], [ 177087.652932305645663, 311786.49523411388509 ], [ 175985.938087666843785, 312109.596876320778392 ], [ 174460.234198615769856, 312833.749936086300295 ], [ 174049.011065329250414, 313118.747239508666098 ], [ 172868.08205528956023, 313937.557151054730639 ], [ 171718.953447251697071, 315629.667979880119674 ], [ 171558.033919647568837, 318118.488393691543024 ], [ 176614.48104792914819, 323811.539490103605203 ], [ 177427.327913101384183, 324142.712670364242513 ], [ 178240.226608697441407, 324439.524393993080594 ], [ 178573.382392567000352, 324711.250652874819934 ], [ 179475.501062232506229, 326083.73830128274858 ], [ 180676.183885876613203, 328676.686057003680617 ], [ 181475.435056334565161, 330037.527205900580157 ], [ 180790.801346587366425, 330442.228865667944774 ], [ 180115.44745938811684, 330456.12497548549436 ], [ 178549.034362831967883, 330023.278470944089349 ], [ 181293.031196560477838, 334457.630170628428459 ], [ 182388.597615368344123, 337176.935256583092269 ], [ 181431.988233744224999, 338465.454571061185561 ], [ 181591.077613823494175, 339940.918773368408438 ], [ 181940.538326233479893, 341020.704701965791173 ], [ 182511.074010417854879, 341377.300044209987391 ], [ 183333.695154363347683, 340680.397446194197983 ], [ 183858.624455130950082, 341404.836929600161966 ], [ 184238.12182786030462, 342197.495693020697217 ], [ 184750.845333691657288, 343726.839189289370552 ], [ 184552.717179350962397, 344174.117847689718474 ], [ 184442.142806596704759, 344512.682234600186348 ], [ 184263.754241074406309, 345316.528976239496842 ], [ 185031.677174380951328, 345237.621616844786331 ], [ 185783.951000746892532, 345357.072496561799198 ], [ 186491.690823911281768, 345648.838031711638905 ], [ 187133.278198351123137, 346086.881584682210814 ], [ 185530.535369884193642, 347784.557177131995559 ], [ 185747.224718854238745, 349056.414995013736188 ], [ 186725.089373719063587, 350036.865803207154386 ], [ 186548.190442141989479, 350570.443020236096345 ], [ 185917.617856699071126, 351983.74862345441943 ], [ 184724.030233023193432, 352071.51871194614796 ], [ 182579.551817793253576, 351513.331690124818124 ], [ 181642.637128910311731, 352293.108669991255738 ], [ 180172.213861471507698, 354303.576668609282933 ], [ 179027.092619998758892, 354982.201030047028325 ], [ 178130.606821953610051, 355072.924473693594337 ], [ 175206.413011070166249, 354456.853371396427974 ], [ 174006.774925913487095, 354440.751049624290317 ], [ 173245.996052910923027, 354981.257279046229087 ], [ 172571.292225844226778, 355752.139824385696556 ], [ 171622.62360169342719, 356415.84314117138274 ], [ 167660.781878102658084, 357600.266327222227119 ], [ 166472.859035327797756, 358611.668971937266178 ], [ 166061.638213680969784, 358961.939945345453452 ], [ 165832.419348116964102, 361491.016950722201727 ], [ 165330.069373734731926, 363645.861012331559323 ], [ 164035.765835846454138, 365333.610980092722457 ], [ 162397.230832126864698, 366365.785437542479485 ], [ 160890.115841894905316, 366536.284063787898049 ], [ 159513.619418021698948, 365870.86405350494897 ], [ 156586.675137570913648, 363802.334667114773765 ], [ 155129.513181791320676, 363264.549276505014859 ], [ 146869.458914764865767, 363618.83840767032234 ], [ 144686.368971150222933, 363077.295823655964341 ], [ 144234.957493090769276, 362965.453325169626623 ], [ 143009.155020720005268, 363281.50323131022742 ], [ 142982.423894863633905, 367242.649170995631721 ], [ 141760.964224693772849, 368803.667407125933096 ], [ 140471.339571847696789, 368936.541153489088174 ], [ 137775.318363755155588, 368709.23333418101538 ], [ 136574.195127838203916, 369380.334284055687021 ], [ 136238.200193600350758, 370108.814331424247939 ], [ 135534.315861310926266, 372566.310871458612382 ], [ 135170.813203895027982, 373533.564332598412875 ], [ 132784.832154481497128, 376199.513824924477376 ], [ 132343.488058698887471, 377282.311064774228726 ], [ 132598.734938888897886, 379690.043323587160558 ], [ 133382.971227750007529, 381466.010731477232184 ], [ 133635.185662291565677, 383316.159074677387252 ], [ 132281.508188209874788, 385929.262745275744237 ], [ 130205.388844142085873, 387324.554581001517363 ], [ 130012.821040531111066, 387589.95818397810217 ], [ 128941.571702582179569, 387319.387809394625947 ], [ 128521.605373334605247, 386651.783621912705712 ], [ 128279.163675342177157, 385618.211630908772349 ], [ 127790.568751995815546, 384252.517321324674413 ], [ 126695.622107094415696, 382459.010705225693528 ], [ 125080.032074668095447, 380295.092261840880383 ], [ 123314.896541776775848, 378595.411621981067583 ], [ 121808.889570830069715, 378191.099434480071068 ], [ 119127.311623690082342, 379448.29567870113533 ], [ 117849.725430664460873, 379802.440469078603201 ], [ 112982.715811560876318, 380007.135247050668113 ], [ 111514.057792219828116, 380657.6828488772735 ], [ 111920.856250158074545, 381990.930278156069107 ], [ 112705.313789587089559, 382099.314487237192225 ], [ 115727.645726443093736, 380657.807514748070389 ], [ 115239.515225163748255, 382596.247736869729124 ], [ 115561.66776684159413, 384278.276559533027466 ], [ 116005.031448410823941, 385870.266049706726335 ], [ 115867.166492922682664, 387550.131940140214283 ], [ 115156.568013930926099, 388498.552484367392026 ], [ 113999.814347837324021, 389275.315508715924807 ], [ 112740.566981004929403, 389768.616651686199475 ], [ 111736.61864611080091, 389874.83541331399465 ], [ 109436.56527624593582, 388713.515251509903464 ], [ 104000.577690168633126, 382156.370744724059477 ], [ 103276.340399032022106, 381628.992386713449378 ], [ 102338.122144778142683, 381282.182062174833845 ], [ 101258.99641689863347, 381221.639651254401542 ], [ 99043.721719249850139, 381806.164731307013426 ], [ 97033.963280467898585, 381460.755278241820633 ], [ 96114.789047699683579, 381557.595212554151658 ], [ 94796.200923237513052, 382527.50085997604765 ], [ 94938.444530977678369, 383612.486146387527697 ], [ 95543.93537812231807, 384990.987975803553127 ], [ 95659.10981411888497, 386849.638310525158886 ], [ 95117.13129219939583, 387784.56623170839157 ], [ 94243.11260224810394, 387955.965725058049429 ], [ 92185.520222585269948, 387641.839936349599157 ], [ 88440.989215364694246, 386315.480481638689525 ], [ 84777.46128071147541, 384240.395534943556413 ], [ 85605.479018486119458, 383306.149428812554106 ], [ 85450.873168211226584, 382514.812750034674536 ], [ 84986.082624741378822, 381652.99354533245787 ], [ 84920.199053903765162, 380526.941716888919473 ], [ 85445.761019313940778, 379519.255087838449981 ], [ 86981.409081193938619, 377635.526055109221488 ], [ 87391.336815374583239, 376537.605716447462328 ], [ 87020.285426475558779, 374625.034495514526498 ], [ 85686.137525557947811, 373938.715462485095486 ], [ 82442.123913070987328, 374193.851323573035188 ], [ 81102.552532032132149, 374673.147305732185487 ], [ 78603.671927494520787, 376081.441953827277757 ], [ 77978.683193142787786, 376112.535229076747783 ], [ 76582.863756611783174, 376182.05131935433019 ], [ 76311.337273338707746, 376533.924488227872644 ], [ 75770.731919005076634, 377846.257230415823869 ], [ 75605.037806685024407, 379207.093422501231544 ] ] ], [ [ [ 65148.979563465487445, 406932.980385955655947 ], [ 63996.965743256630958, 406161.268775148142595 ], [ 62760.252438796305796, 405708.32532078307122 ], [ 57421.99749963679642, 404767.395761145860888 ], [ 56194.873862535459921, 404854.687455747276545 ], [ 53639.154295220825588, 405865.36452515644487 ], [ 52167.889425448316615, 406954.756406428117771 ], [ 51534.141914406151045, 408471.064562037412543 ], [ 51124.45857948459161, 409910.398901936248876 ], [ 50050.360301149121369, 410793.023377511708532 ], [ 47360.893365501920925, 411936.58904801751487 ], [ 46909.123535943610477, 412394.572886620589998 ], [ 46488.786447256599786, 413001.345465245365631 ], [ 45919.656576544002746, 413489.132892492227256 ], [ 44998.635322023415938, 413577.116916476166807 ], [ 43249.055072027607821, 411577.909747596480884 ], [ 42835.424830160904094, 411206.721443262067623 ], [ 39730.57977580660372, 411100.262945966154803 ], [ 38322.144143504701788, 411553.859790522314142 ], [ 37430.682665814689244, 412919.574445175821893 ], [ 37705.908580557574169, 416513.333409721031785 ], [ 40256.139801177370828, 418089.250878984981682 ], [ 46091.082704607979394, 418801.663245599076618 ], [ 46379.907535208069021, 418899.555071860551834 ], [ 47507.09909525301191, 418771.165746813989244 ], [ 48406.835881687875371, 418253.884469624550547 ], [ 55023.208780877583195, 417932.222456579562277 ], [ 56545.20393368358782, 417562.569637040724047 ], [ 57652.456848692323547, 416671.607392049860209 ], [ 60172.789588802508661, 413444.794416789372917 ], [ 60499.322738335802569, 412854.544936876394786 ], [ 60926.954750776305445, 412248.84710158436792 ], [ 61608.158671623823466, 411652.050885309232399 ], [ 64480.327690664489637, 410793.622679940366652 ], [ 65775.115336421120446, 409837.775287582771853 ], [ 65884.130956812470686, 408042.816247715498321 ], [ 65148.979563465487445, 406932.980385955655947 ] ] ], [ [ [ 119998.806503519153921, 562717.006743725505657 ], [ 116818.609212927694898, 560132.744152371655218 ], [ 115287.53004792923457, 557201.668385423836298 ], [ 113019.968953501898795, 556555.145107388845645 ], [ 110668.426892180272262, 557549.660515249706805 ], [ 109411.257524417349487, 560387.050435662618838 ], [ 109853.371098551549949, 563294.671322120237164 ], [ 111209.11154936478124, 566574.35908311791718 ], [ 112895.721396235079737, 569258.324804207426496 ], [ 116078.564438031578902, 571962.27396064880304 ], [ 117683.914069522958016, 575287.081761835375801 ], [ 119380.670766562980134, 578027.577431179350242 ], [ 121479.632840739039239, 577899.293577837292105 ], [ 121747.127768606151221, 577245.327020514640026 ], [ 121895.546939717940404, 576673.731725413817912 ], [ 121842.930245512281545, 576144.241423898376524 ], [ 121463.755543458551983, 575617.060553648159839 ], [ 122400.309108544912306, 574066.425663414760493 ], [ 123073.218457166018197, 572087.529720795573667 ], [ 123045.279600779016619, 570335.238675864296965 ], [ 121878.798575974738924, 569473.627005052170716 ], [ 121874.047073610679945, 568780.83310673176311 ], [ 123247.497422053231276, 568771.608209009747952 ], [ 122769.053080554425833, 567316.647570083383471 ], [ 121884.876298713978031, 565588.271811903803609 ], [ 119998.806503519153921, 562717.006743725505657 ] ] ], [ [ [ 136174.563480194279691, 590739.245532818720676 ], [ 134395.044280470028752, 590746.550976344384253 ], [ 133557.395907115365844, 590270.190247606486082 ], [ 131611.30874735978432, 589536.586605785414577 ], [ 126316.678439980983967, 584416.279103623121046 ], [ 124847.11299094487913, 582247.022763772285543 ], [ 123130.57786632727948, 580754.630691456375644 ], [ 121049.510201933444478, 581706.27060635923408 ], [ 123899.660648104952998, 585341.548943525529467 ], [ 128278.165318533108803, 589350.17540479474701 ], [ 132821.913556100742426, 591976.273601662600413 ], [ 136177.545610516914167, 591500.029224027181044 ], [ 136174.563480194279691, 590739.245532818720676 ] ] ], [ [ [ 160864.810452283883933, 604522.82204886036925 ], [ 160995.122362738475204, 604142.558564081322402 ], [ 161153.068514402693836, 603327.585718035814352 ], [ 161283.454043188830838, 602933.766291699837893 ], [ 160412.715022071788553, 602470.75597977032885 ], [ 157647.265339857869549, 602237.469838018994778 ], [ 154686.625835610466311, 600927.965487829060294 ], [ 152320.441695744462777, 600321.834057107567787 ], [ 143089.424578738224227, 596269.172099976683967 ], [ 141192.867687193560414, 596319.527758929412812 ], [ 140385.145657274581026, 598006.57983381091617 ], [ 141138.252690043154871, 599919.954857028322294 ], [ 144704.007828498346498, 601165.413834908045828 ], [ 145886.225339354161406, 602245.389747902168892 ], [ 147401.618139493046328, 602201.991099219536409 ], [ 156331.559962581057334, 604030.283798478194512 ], [ 157418.593291683733696, 604900.226109500974417 ], [ 158310.662844817648875, 605580.08791461319197 ], [ 168159.815000883856555, 607503.697711184853688 ], [ 166618.805656022799667, 605353.036295299069025 ], [ 164737.879175235080766, 604687.627524953102693 ], [ 160864.810452283883933, 604522.82204886036925 ] ] ], [ [ [ 179289.655374884983758, 606858.952995130443014 ], [ 177583.136985939665465, 606397.672730111051351 ], [ 174393.177968882373534, 604911.80883615440689 ], [ 172703.969355298497248, 605308.304204040905461 ], [ 171535.303462870389922, 606966.191372246714309 ], [ 171918.813783226389205, 608602.42390572198201 ], [ 173039.509877995064016, 609553.07468679221347 ], [ 174046.422450278536417, 609117.681992676341906 ], [ 189968.782108914601849, 609868.983419979223981 ], [ 192687.284740366652841, 608467.578351841308177 ], [ 186124.266572053660639, 606898.594610482337885 ], [ 179289.655374884983758, 606858.952995130443014 ] ] ], [ [ [ 205867.064066011167597, 609450.296493401750922 ], [ 204565.994390741980169, 607742.756873756181449 ], [ 204169.520552731177304, 608440.660298149799928 ], [ 204144.263839752238709, 608793.674793086014688 ], [ 204549.45236910978565, 609336.810779172927141 ], [ 203836.668372392421588, 610855.783832947839983 ], [ 205490.519307148933876, 612344.953936108853668 ], [ 207962.605018575675786, 613485.937881527934223 ], [ 209707.021111720387125, 613949.514103049878031 ], [ 216270.24665991863003, 614618.129652787931263 ], [ 218129.712530941935256, 614053.574395741568878 ], [ 218139.783394804340787, 613292.759504488669336 ], [ 217232.586037393950392, 613280.837010337272659 ], [ 205867.064066011167597, 609450.296493401750922 ] ] ], [ [ [ 228701.475054278853349, 617670.382455010781996 ], [ 228546.123265982081648, 617246.722075352095999 ], [ 226165.563334458274767, 618007.769012858625501 ], [ 224984.070515127736144, 618728.565702503547072 ], [ 224849.184835068241227, 619464.911683289567009 ], [ 225768.967986314499285, 619641.565120463492349 ], [ 229439.696269536245381, 618084.964290562318638 ], [ 229142.71097268210724, 618098.462765508331358 ], [ 228902.062143803399522, 617958.855374328792095 ], [ 228701.475054278853349, 617670.382455010781996 ] ] ] ] } }
]
}
